*******************************************************************************
Ephemeris / WWW_USER Fri Mar  7 09:51:54 2025 Pasadena, USA      / Horizons    
*******************************************************************************
Target body name: Triton (801)                    {source: nep097_merged}
Center body name: Earth (399)                     {source: nep097_merged}
Center-site name: Mauna Kea
*******************************************************************************
Start time      : A.D. 2018-Nov-11 03:53:00.0000 UT      
Stop  time      : A.D. 2018-Nov-11 16:18:00.0000 UT      
Step-size       : 1 minutes
*******************************************************************************
Target pole/equ : IAU_TRITON                      {East-longitude positive}
Target radii    : 1352.6, 1352.6, 1352.6 km       {Equator_a, b, pole_c}       
Center geodetic : 204.5278, 19.8260847, 4.21024   {E-lon(deg),Lat(deg),Alt(km)}
Center cylindric: 204.5278, 6006.35451, 2151.0229 {E-lon(deg),Dxy(km),Dz(km)}
Center pole/equ : ITRF93                          {East-longitude positive}
Center radii    : 6378.137, 6378.137, 6356.752 km {Equator_a, b, pole_c}       
Target primary  : Neptune
Vis. interferer : MOON (R_eq= 1737.400) km        {source: DE441}
Rel. light bend : Sun                             {source: nep097_merged}
Rel. lght bnd GM: 1.3271E+11 km^3/s^2                                          
Atmos refraction: NO (AIRLESS)
RA format       : HMS
Time format     : CAL 
Calendar mode   : Mixed Julian/Gregorian
RTS-only print  : NO       
EOP file        : eop.250306.p250602                                           
EOP coverage    : DATA-BASED 1962-JAN-20 TO 2025-MAR-06. PREDICTS-> 2025-JUN-01
Units conversion: 1 au= 149597870.700 km, c= 299792.458 km/s, 1 day= 86400.0 s 
Table cut-offs 1: Elevation (-90.0deg=NO ),Airmass (>38.000=NO), Daylight (YES)
Table cut-offs 2: Solar elongation (  0.0,180.0=NO ),Local Hour Angle( 0.0=NO )
Table cut-offs 3: RA/DEC angular rate (     0.0=NO )                           
*******************************************************************************
 Date__(UT)__HR:MN     R.A._________(ICRF)_________DEC
******************************************************
$$SOE
 2018-Nov-11 03:53 Cm  23 00 40.728754 -07 24 04.96168
 2018-Nov-11 03:54 Cm  23 00 40.727945 -07 24 04.97163
 2018-Nov-11 03:55 Cm  23 00 40.727136 -07 24 04.98158
 2018-Nov-11 03:56 Cm  23 00 40.726326 -07 24 04.99154
 2018-Nov-11 03:57 Cm  23 00 40.725515 -07 24 05.00151
 2018-Nov-11 03:58 Cm  23 00 40.724704 -07 24 05.01148
 2018-Nov-11 03:59 Cm  23 00 40.723893 -07 24 05.02146
 2018-Nov-11 04:00 Cm  23 00 40.723081 -07 24 05.03145
 2018-Nov-11 04:01 Cm  23 00 40.722269 -07 24 05.04144
 2018-Nov-11 04:02 Cm  23 00 40.721456 -07 24 05.05144
 2018-Nov-11 04:03 Cm  23 00 40.720643 -07 24 05.06145
 2018-Nov-11 04:04 Cm  23 00 40.719829 -07 24 05.07146
 2018-Nov-11 04:05 Cm  23 00 40.719015 -07 24 05.08149
 2018-Nov-11 04:06 Cm  23 00 40.718201 -07 24 05.09151
 2018-Nov-11 04:07 Nm  23 00 40.717386 -07 24 05.10155
 2018-Nov-11 04:08 Nm  23 00 40.716571 -07 24 05.11159
 2018-Nov-11 04:09 Nm  23 00 40.715755 -07 24 05.12164
 2018-Nov-11 04:10 Nm  23 00 40.714939 -07 24 05.13170
 2018-Nov-11 04:11 Nm  23 00 40.714123 -07 24 05.14176
 2018-Nov-11 04:12 Nm  23 00 40.713306 -07 24 05.15183
 2018-Nov-11 04:13 Nm  23 00 40.712488 -07 24 05.16190
 2018-Nov-11 04:14 Nm  23 00 40.711670 -07 24 05.17199
 2018-Nov-11 04:15 Nm  23 00 40.710852 -07 24 05.18208
 2018-Nov-11 04:16 Nm  23 00 40.710034 -07 24 05.19217
 2018-Nov-11 04:17 Nm  23 00 40.709215 -07 24 05.20228
 2018-Nov-11 04:18 Nm  23 00 40.708395 -07 24 05.21239
 2018-Nov-11 04:19 Nm  23 00 40.707575 -07 24 05.22250
 2018-Nov-11 04:20 Nm  23 00 40.706755 -07 24 05.23263
 2018-Nov-11 04:21 Nm  23 00 40.705934 -07 24 05.24276
 2018-Nov-11 04:22 Nm  23 00 40.705113 -07 24 05.25290
 2018-Nov-11 04:23 Nm  23 00 40.704291 -07 24 05.26304
 2018-Nov-11 04:24 Nm  23 00 40.703469 -07 24 05.27319
 2018-Nov-11 04:25 Nm  23 00 40.702647 -07 24 05.28335
 2018-Nov-11 04:26 Nm  23 00 40.701824 -07 24 05.29352
 2018-Nov-11 04:27 Nm  23 00 40.701001 -07 24 05.30369
 2018-Nov-11 04:28 Nm  23 00 40.700178 -07 24 05.31387
 2018-Nov-11 04:29 Nm  23 00 40.699354 -07 24 05.32405
 2018-Nov-11 04:30 Nm  23 00 40.698529 -07 24 05.33424
 2018-Nov-11 04:31 Nm  23 00 40.697704 -07 24 05.34444
 2018-Nov-11 04:32 Nm  23 00 40.696879 -07 24 05.35465
 2018-Nov-11 04:33 Nm  23 00 40.696054 -07 24 05.36486
 2018-Nov-11 04:34 Am  23 00 40.695228 -07 24 05.37508
 2018-Nov-11 04:35 Am  23 00 40.694401 -07 24 05.38531
 2018-Nov-11 04:36 Am  23 00 40.693574 -07 24 05.39554
 2018-Nov-11 04:37 Am  23 00 40.692747 -07 24 05.40578
 2018-Nov-11 04:38 Am  23 00 40.691920 -07 24 05.41603
 2018-Nov-11 04:39 Am  23 00 40.691092 -07 24 05.42628
 2018-Nov-11 04:40 Am  23 00 40.690263 -07 24 05.43654
 2018-Nov-11 04:41 Am  23 00 40.689435 -07 24 05.44681
 2018-Nov-11 04:42 Am  23 00 40.688605 -07 24 05.45708
 2018-Nov-11 04:43 Am  23 00 40.687776 -07 24 05.46736
 2018-Nov-11 04:44 Am  23 00 40.686946 -07 24 05.47765
 2018-Nov-11 04:45 Am  23 00 40.686116 -07 24 05.48794
 2018-Nov-11 04:46 Am  23 00 40.685285 -07 24 05.49824
 2018-Nov-11 04:47 Am  23 00 40.684454 -07 24 05.50855
 2018-Nov-11 04:48 Am  23 00 40.683623 -07 24 05.51886
 2018-Nov-11 04:49 Am  23 00 40.682791 -07 24 05.52918
 2018-Nov-11 04:50 Am  23 00 40.681959 -07 24 05.53951
 2018-Nov-11 04:51 Am  23 00 40.681126 -07 24 05.54984
 2018-Nov-11 04:52 Am  23 00 40.680293 -07 24 05.56018
 2018-Nov-11 04:53 Am  23 00 40.679460 -07 24 05.57053
 2018-Nov-11 04:54 Am  23 00 40.678626 -07 24 05.58089
 2018-Nov-11 04:55 Am  23 00 40.677792 -07 24 05.59125
 2018-Nov-11 04:56 Am  23 00 40.676957 -07 24 05.60161
 2018-Nov-11 04:57 Am  23 00 40.676123 -07 24 05.61199
 2018-Nov-11 04:58 Am  23 00 40.675287 -07 24 05.62237
 2018-Nov-11 04:59 Am  23 00 40.674452 -07 24 05.63276
 2018-Nov-11 05:00  m  23 00 40.673616 -07 24 05.64315
 2018-Nov-11 05:01  m  23 00 40.672780 -07 24 05.65355
 2018-Nov-11 05:02  m  23 00 40.671943 -07 24 05.66396
 2018-Nov-11 05:03  m  23 00 40.671106 -07 24 05.67438
 2018-Nov-11 05:04  m  23 00 40.670269 -07 24 05.68480
 2018-Nov-11 05:05  m  23 00 40.669431 -07 24 05.69523
 2018-Nov-11 05:06  m  23 00 40.668593 -07 24 05.70566
 2018-Nov-11 05:07  m  23 00 40.667754 -07 24 05.71610
 2018-Nov-11 05:08  m  23 00 40.666916 -07 24 05.72655
 2018-Nov-11 05:09  m  23 00 40.666077 -07 24 05.73700
 2018-Nov-11 05:10  m  23 00 40.665237 -07 24 05.74747
 2018-Nov-11 05:11  m  23 00 40.664397 -07 24 05.75793
 2018-Nov-11 05:12  m  23 00 40.663557 -07 24 05.76841
 2018-Nov-11 05:13  m  23 00 40.662716 -07 24 05.77889
 2018-Nov-11 05:14  m  23 00 40.661876 -07 24 05.78938
 2018-Nov-11 05:15  m  23 00 40.661034 -07 24 05.79987
 2018-Nov-11 05:16  m  23 00 40.660193 -07 24 05.81037
 2018-Nov-11 05:17  m  23 00 40.659351 -07 24 05.82088
 2018-Nov-11 05:18  m  23 00 40.658508 -07 24 05.83140
 2018-Nov-11 05:19  m  23 00 40.657666 -07 24 05.84192
 2018-Nov-11 05:20  m  23 00 40.656823 -07 24 05.85245
 2018-Nov-11 05:21  m  23 00 40.655980 -07 24 05.86298
 2018-Nov-11 05:22  m  23 00 40.655136 -07 24 05.87352
 2018-Nov-11 05:23  m  23 00 40.654292 -07 24 05.88407
 2018-Nov-11 05:24  m  23 00 40.653448 -07 24 05.89462
 2018-Nov-11 05:25  m  23 00 40.652603 -07 24 05.90519
 2018-Nov-11 05:26  m  23 00 40.651758 -07 24 05.91575
 2018-Nov-11 05:27  m  23 00 40.650913 -07 24 05.92633
 2018-Nov-11 05:28  m  23 00 40.650067 -07 24 05.93691
 2018-Nov-11 05:29  m  23 00 40.649221 -07 24 05.94750
 2018-Nov-11 05:30  m  23 00 40.648375 -07 24 05.95809
 2018-Nov-11 05:31  m  23 00 40.647528 -07 24 05.96869
 2018-Nov-11 05:32  m  23 00 40.646681 -07 24 05.97930
 2018-Nov-11 05:33  m  23 00 40.645834 -07 24 05.98991
 2018-Nov-11 05:34  m  23 00 40.644986 -07 24 06.00053
 2018-Nov-11 05:35  m  23 00 40.644138 -07 24 06.01116
 2018-Nov-11 05:36  m  23 00 40.643290 -07 24 06.02180
 2018-Nov-11 05:37  m  23 00 40.642442 -07 24 06.03244
 2018-Nov-11 05:38  m  23 00 40.641593 -07 24 06.04308
 2018-Nov-11 05:39  m  23 00 40.640744 -07 24 06.05374
 2018-Nov-11 05:40  m  23 00 40.639894 -07 24 06.06440
 2018-Nov-11 05:41  m  23 00 40.639044 -07 24 06.07506
 2018-Nov-11 05:42  m  23 00 40.638194 -07 24 06.08574
 2018-Nov-11 05:43  m  23 00 40.637344 -07 24 06.09642
 2018-Nov-11 05:44  m  23 00 40.636493 -07 24 06.10711
 2018-Nov-11 05:45  m  23 00 40.635642 -07 24 06.11780
 2018-Nov-11 05:46  m  23 00 40.634791 -07 24 06.12850
 2018-Nov-11 05:47  m  23 00 40.633939 -07 24 06.13920
 2018-Nov-11 05:48  m  23 00 40.633087 -07 24 06.14992
 2018-Nov-11 05:49  m  23 00 40.632235 -07 24 06.16064
 2018-Nov-11 05:50  m  23 00 40.631382 -07 24 06.17136
 2018-Nov-11 05:51  m  23 00 40.630529 -07 24 06.18210
 2018-Nov-11 05:52  m  23 00 40.629676 -07 24 06.19284
 2018-Nov-11 05:53  m  23 00 40.628823 -07 24 06.20358
 2018-Nov-11 05:54  m  23 00 40.627969 -07 24 06.21433
 2018-Nov-11 05:55  m  23 00 40.627115 -07 24 06.22509
 2018-Nov-11 05:56  m  23 00 40.626261 -07 24 06.23586
 2018-Nov-11 05:57  m  23 00 40.625406 -07 24 06.24663
 2018-Nov-11 05:58  m  23 00 40.624551 -07 24 06.25741
 2018-Nov-11 05:59  m  23 00 40.623696 -07 24 06.26819
 2018-Nov-11 06:00  m  23 00 40.622840 -07 24 06.27899
 2018-Nov-11 06:01  m  23 00 40.621985 -07 24 06.28978
 2018-Nov-11 06:02  m  23 00 40.621128 -07 24 06.30059
 2018-Nov-11 06:03  t  23 00 40.620272 -07 24 06.31140
 2018-Nov-11 06:04  m  23 00 40.619415 -07 24 06.32222
 2018-Nov-11 06:05  m  23 00 40.618559 -07 24 06.33304
 2018-Nov-11 06:06  m  23 00 40.617701 -07 24 06.34387
 2018-Nov-11 06:07  m  23 00 40.616844 -07 24 06.35471
 2018-Nov-11 06:08  m  23 00 40.615986 -07 24 06.36556
 2018-Nov-11 06:09  m  23 00 40.615128 -07 24 06.37641
 2018-Nov-11 06:10  m  23 00 40.614270 -07 24 06.38726
 2018-Nov-11 06:11  m  23 00 40.613411 -07 24 06.39813
 2018-Nov-11 06:12  m  23 00 40.612552 -07 24 06.40900
